[{"OBJECT_NAME":"STARLINK-35840","OBJECT_ID":"2025-280P","EPOCH":"2026-03-09T23:27:17.172576","MEAN_MOTION":14.98341894,"ECCENTRICITY":0.00027132,"INCLINATION":70.0018,"RA_OF_ASC_NODE":333.5414,"ARG_OF_PERICENTER":269.2016,"MEAN_ANOMALY":90.8832,"EPHEMERIS_TYPE":0,"CLASSIFICATION_TYPE":"U","NORAD_CAT_ID":66834,"ELEMENT_SET_NO":999,"REV_AT_EPOCH":1612,"BSTAR":0.0005359238,"MEAN_MOTION_DOT":6.309e-5,"MEAN_MOTION_DDOT":0},{"OBJECT_NAME":"RAX (USA 218)","OBJECT_ID":"2010-062B","EPOCH":"2026-03-09T23:21:07.029792","MEAN_MOTION":14.99597607,"ECCENTRICITY":0.00156448,"INCLINATION":71.9685,"RA_OF_ASC_NODE":266.5192,"ARG_OF_PERICENTER":230.5338,"MEAN_ANOMALY":129.4452,"EPHEMERIS_TYPE":0,"CLASSIFICATION_TYPE":"U","NORAD_CAT_ID":37223,"ELEMENT_SET_NO":999,"REV_AT_EPOCH":9933,"BSTAR":0.00040559866,"MEAN_MOTION_DOT":4.944e-5,"MEAN_MOTION_DDOT":0}]
